{
  "type": "FeatureCollection",
  "features": [
    {
      "type": "Feature",
      "properties": {},
      "geometry": {
        "coordinates": [
          [
            [
              37.58370050724517,
              55.74382832873928
            ],
            [
              37.58303130298444,
              55.74528082643221
            ],
            [
              37.57992919405049,
              55.745774754947604
            ],
            [
              37.57876661442217,
              55.745762964071254
            ],
            [
              37.57577671236355,
              55.745420549598535
            ],
            [
              37.57472554994262,
              55.74396640752453
            ],
            [
              37.573531224848765,
              55.742654951684486
            ],
            [
              37.57181472821523,
              55.740714058913284
            ],
            [
              37.57033847592733,
              55.73882989682872
            ],
            [
              37.56888497649999,
              55.73736479179311
            ],
            [
              37.567248780667,
              55.736056637780905
            ],
            [
              37.564325649317624,
              55.734340072435174
            ],
            [
              37.559415537176136,
              55.73197017800305
            ],
            [
              37.55656933580735,
              55.730213843394466
            ],
            [
              37.55912426460526,
              55.72831087440983
            ],
            [
              37.560669970075224,
              55.727326295058816
            ],
            [
              37.56011250076776,
              55.726769784586736
            ],
            [
              37.55958037265523,
              55.72598494598978
            ],
            [
              37.55826272209066,
              55.72521436183746
            ],
            [
              37.55686905322429,
              55.72445803297444
            ],
            [
              37.555526063225756,
              55.72287397599999
            ],
            [
              37.57013455929774,
              55.71844523395254
            ],
            [
              37.575376187973944,
              55.72229561672225
            ],
            [
              37.57978497707859,
              55.72559468584589
            ],
            [
              37.581591864372086,
              55.72688082216317
            ],
            [
              37.58336600327553,
              55.72819256442392
            ],
            [
              37.58426498123791,
              55.72878435345274
            ],
            [
              37.58982517476446,
              55.730880061788326
            ],
            [
              37.59128634000152,
              55.73142686006463
            ],
            [
              37.591841274053564,
              55.73170492514231
            ],
            [
              37.59412180824876,
              55.73544292315893
            ],
            [
              37.58608920769174,
              55.738538626414424
            ],
            [
              37.58370050724517,
              55.74382832873928
            ]
          ]
        ],
        "type": "Polygon"
      }
    }
  ]
}