{
  "type": "FeatureCollection",
  "features": [
    {
      "type": "Feature",
      "properties": {},
      "geometry": {
        "coordinates": [
          [
            [
              37.58488047110569,
              55.74098138150208
            ],
            [
              37.58107475875505,
              55.740595367197386
            ],
            [
              37.57864047427856,
              55.741116485606625
            ],
            [
              37.57713190361707,
              55.74129019019668
            ],
            [
              37.57576047574298,
              55.737545719957325
            ],
            [
              37.57308619138854,
              55.73291288847787
            ],
            [
              37.57349761975078,
              55.73289358386302
            ],
            [
              37.57545190447132,
              55.73368506524389
            ],
            [
              37.578388730715716,
              55.73113074893112
            ],
            [
              37.5795614284452,
              55.72862350648444
            ],
            [
              37.58165285595314,
              55.726770016290175
            ],
            [
              37.58415571182337,
              55.72862350648444
            ],
            [
              37.59152713664656,
              55.73144218749317
            ],
            [
              37.59225767271724,
              55.732098698027585
            ],
            [
              37.59431481452833,
              55.735476929069506
            ],
            [
              37.58625767576808,
              55.73856534160791
            ],
            [
              37.58488047110569,
              55.74098138150208
            ]
          ]
        ],
        "type": "Polygon"
      }
    }
  ]
}