{
  "type": "FeatureCollection",
  "features": [
    {
      "type": "Feature",
      "properties": {},
      "geometry": {
        "coordinates": [
          [
            [
              37.58610672200669,
              55.73855228267655
            ],
            [
              37.58578597468349,
              55.73888822754341
            ],
            [
              37.584857248384026,
              55.74060697986272
            ],
            [
              37.58449174562037,
              55.74090091630356
            ],
            [
              37.58104557670012,
              55.74057338698566
            ],
            [
              37.58041909907075,
              55.73943314874421
            ],
            [
              37.58027737350966,
              55.73877386341718
            ],
            [
              37.57997976154587,
              55.73730889985086
            ],
            [
              37.58198268488897,
              55.737256866925975
            ],
            [
              37.584319006193994,
              55.735679735856564
            ],
            [
              37.58758130467808,
              55.73341425647811
            ],
            [
              37.588987946675246,
              55.732514381783915
            ],
            [
              37.591138817252556,
              55.73154604405781
            ],
            [
              37.59154227885432,
              55.73161523873175
            ],
            [
              37.5921219126798,
              55.73214648262317
            ],
            [
              37.5931645213507,
              55.73380195946416
            ],
            [
              37.59411708798635,
              55.73532575263948
            ],
            [
              37.593716906323436,
              55.73560051785168
            ],
            [
              37.58610672200669,
              55.73855228267655
            ]
          ]
        ],
        "type": "Polygon"
      }
    }
  ]
}
