{
  "type": "FeatureCollection",
  "features": [
    {
      "type": "Feature",
      "properties": {},
      "geometry": {
        "coordinates": [
          [
            [
              37.58104289537934,
              55.74059968397299
            ],
            [
              37.58034914022795,
              55.73944430726539
            ],
            [
              37.58021832784635,
              55.73873427448774
            ],
            [
              37.58220880425539,
              55.73868288442982
            ],
            [
              37.58420913412263,
              55.738698060535995
            ],
            [
              37.58519138297376,
              55.738734560547044
            ],
            [
              37.58562920164533,
              55.73886224560468
            ],
            [
              37.584801027759994,
              55.74092746536533
            ],
            [
              37.58293181502793,
              55.74072751988106
            ],
            [
              37.58104289537934,
              55.74059968397299
            ]
          ]
        ],
        "type": "Polygon"
      }
    }
  ]
}